{
  "type": "FeatureCollection",
  "features": [
    {
      "type": "Feature",
      "properties": {
        "norad_id": 30709,
        "name": "FENGYUN 1C DEB",
        "group": "fengyun-1c-debris",
        "lat": 54.09356937435252,
        "lon": 162.86062868216254,
        "alt_km": 866.847965419729,
        "timestamp": "2025-12-17T21:39:45.965298+00:00",
        "meta_object_name": "FENGYUN 1C DEB",
        "meta_object_id": "1999-025ART",
        "meta_epoch": "2025-12-17T09:12:36.435456",
        "meta_mean_motion": 14.17526718,
        "meta_eccentricity": 0.00821002,
        "meta_inclination": 99.1438,
        "meta_ra_of_asc_node": 329.4743,
        "meta_arg_of_pericenter": 256.9312,
        "meta_mean_anomaly": 102.2688,
        "meta_ephemeris_type": 0,
        "meta_classification_type": "U",
        "meta_norad_cat_id": 30709,
        "meta_element_set_no": 999,
        "meta_rev_at_epoch": 96062,
        "meta_bstar": 0.0020586857,
        "meta_mean_motion_dot": 4.274e-05,
        "meta_mean_motion_ddot": 0,
        "tle_line1": "1 30709U 99025ART 25351.38375504  .00004274  00000+0  20587-2 0  9995",
        "tle_line2": "2 30709  99.1438 329.4743 0082100 256.9312 102.2688 14.17526718960628"
      },
      "geometry": {
        "type": "Point",
        "coordinates": [
          162.86062868216254,
          54.09356937435252
        ]
      }
    },
    {
      "type": "Feature",
      "properties": {
        "norad_id": 30710,
        "name": "FENGYUN 1C DEB",
        "group": "fengyun-1c-debris",
        "lat": -68.63479693813984,
        "lon": -81.5968894349603,
        "alt_km": 1051.5015987691768,
        "timestamp": "2025-12-17T21:39:45.965307+00:00",
        "meta_object_name": "FENGYUN 1C DEB",
        "meta_object_id": "1999-025ARU",
        "meta_epoch": "2025-12-17T10:47:06.831168",
        "meta_mean_motion": 13.94183522,
        "meta_eccentricity": 0.02242119,
        "meta_inclination": 102.7469,
        "meta_ra_of_asc_node": 242.4249,
        "meta_arg_of_pericenter": 72.0614,
        "meta_mean_anomaly": 103.079,
        "meta_ephemeris_type": 0,
        "meta_classification_type": "U",
        "meta_norad_cat_id": 30710,
        "meta_element_set_no": 999,
        "meta_rev_at_epoch": 94854,
        "meta_bstar": 0.0023074784,
        "meta_mean_motion_dot": 3.701e-05,
        "meta_mean_motion_ddot": 0,
        "tle_line1": "1 30710U 99025ARU 25351.44938462  .00003701  00000+0  23075-2 0  9991",
        "tle_line2": "2 30710 102.7469 242.4249 0224211  72.0614 103.0790 13.94183522948549"
      },
      "geometry": {
        "type": "Point",
        "coordinates": [
          -81.5968894349603,
          -68.63479693813984
        ]
      }
    },
    {
      "type": "Feature",
      "properties": {
        "norad_id": 30714,
        "name": "FENGYUN 1C DEB",
        "group": "fengyun-1c-debris",
        "lat": 78.38809473265282,
        "lon": -8.92231614567287,
        "alt_km": 923.2240136978917,
        "timestamp": "2025-12-17T21:39:45.965317+00:00",
        "meta_object_name": "FENGYUN 1C DEB",
        "meta_object_id": "1999-025ARY",
        "meta_epoch": "2025-12-17T09:52:52.118976",
        "meta_mean_motion": 14.03298546,
        "meta_eccentricity": 0.00666616,
        "meta_inclination": 98.8363,
        "meta_ra_of_asc_node": 39.8017,
        "meta_arg_of_pericenter": 269.3907,
        "meta_mean_anomaly": 214.3908,
        "meta_ephemeris_type": 0,
        "meta_classification_type": "U",
        "meta_norad_cat_id": 30714,
        "meta_element_set_no": 999,
        "meta_rev_at_epoch": 96058,
        "meta_bstar": 0.00037757317,
        "meta_mean_motion_dot": 5.58e-06,
        "meta_mean_motion_ddot": 0,
        "tle_line1": "1 30714U 99025ARY 25351.41171434  .00000558  00000+0  37757-3 0  9990",
        "tle_line2": "2 30714  98.8363  39.8017 0066661 269.3907 214.3908 14.03298546960580"
      },
      "geometry": {
        "type": "Point",
        "coordinates": [
          -8.92231614567287,
          78.38809473265282
        ]
      }
    },
    {
      "type": "Feature",
      "properties": {
        "norad_id": 30715,
        "name": "FENGYUN 1C DEB",
        "group": "fengyun-1c-debris",
        "lat": 21.714811743010554,
        "lon": -115.29691347125983,
        "alt_km": 794.1748447564823,
        "timestamp": "2025-12-17T21:39:45.965326+00:00",
        "meta_object_name": "FENGYUN 1C DEB",
        "meta_object_id": "1999-025ARZ",
        "meta_epoch": "2025-12-17T03:56:48.334848",
        "meta_mean_motion": 14.14725268,
        "meta_eccentricity": 0.00676938,
        "meta_inclination": 98.9772,
        "meta_ra_of_asc_node": 60.3516,
        "meta_arg_of_pericenter": 155.9629,
        "meta_mean_anomaly": 204.4728,
        "meta_ephemeris_type": 0,
        "meta_classification_type": "U",
        "meta_norad_cat_id": 30715,
        "meta_element_set_no": 999,
        "meta_rev_at_epoch": 96244,
        "meta_bstar": 0.0013464674,
        "meta_mean_motion_dot": 2.606e-05,
        "meta_mean_motion_ddot": 0,
        "tle_line1": "1 30715U 99025ARZ 25351.16444832  .00002606  00000+0  13465-2 0  9993",
        "tle_line2": "2 30715  98.9772  60.3516 0067693 155.9629 204.4728 14.14725268962441"
      },
      "geometry": {
        "type": "Point",
        "coordinates": [
          -115.29691347125983,
          21.714811743010554
        ]
      }
    },
    {
      "type": "Feature",
      "properties": {
        "norad_id": 30716,
        "name": "FENGYUN 1C DEB",
        "group": "fengyun-1c-debris",
        "lat": 80.22550488105902,
        "lon": 60.5457881294624,
        "alt_km": 610.3394190164199,
        "timestamp": "2025-12-17T21:39:45.965335+00:00",
        "meta_object_name": "FENGYUN 1C DEB",
        "meta_object_id": "1999-025ASA",
        "meta_epoch": "2025-12-17T11:44:54.291264",
        "meta_mean_motion": 14.79626187,
        "meta_eccentricity": 0.00205574,
        "meta_inclination": 98.8715,
        "meta_ra_of_asc_node": 175.0427,
        "meta_arg_of_pericenter": 66.9965,
        "meta_mean_anomaly": 347.8507,
        "meta_ephemeris_type": 0,
        "meta_classification_type": "U",
        "meta_norad_cat_id": 30716,
        "meta_element_set_no": 999,
        "meta_rev_at_epoch": 97894,
        "meta_bstar": 0.0028270278,
        "meta_mean_motion_dot": 0.00021271,
        "meta_mean_motion_ddot": 0,
        "tle_line1": "1 30716U 99025ASA 25351.48951726  .00021271  00000+0  28270-2 0  9993",
        "tle_line2": "2 30716  98.8715 175.0427 0020557  66.9965 347.8507 14.79626187978945"
      },
      "geometry": {
        "type": "Point",
        "coordinates": [
          60.5457881294624,
          80.22550488105902
        ]
      }
    },
    {
      "type": "Feature",
      "properties": {
        "norad_id": 30717,
        "name": "FENGYUN 1C DEB",
        "group": "fengyun-1c-debris",
        "lat": -78.14207122149486,
        "lon": 111.89830536014458,
        "alt_km": 802.0395424786411,
        "timestamp": "2025-12-17T21:39:45.965344+00:00",
        "meta_object_name": "FENGYUN 1C DEB",
        "meta_object_id": "1999-025ASB",
        "meta_epoch": "2025-12-17T03:27:15.094080",
        "meta_mean_motion": 14.20566869,
        "meta_eccentricity": 0.00484854,
        "meta_inclination": 99.0175,
        "meta_ra_of_asc_node": 61.9852,
        "meta_arg_of_pericenter": 244.9903,
        "meta_mean_anomaly": 114.6234,
        "meta_ephemeris_type": 0,
        "meta_classification_type": "U",
        "meta_norad_cat_id": 30717,
        "meta_element_set_no": 999,
        "meta_rev_at_epoch": 96599,
        "meta_bstar": 0.0011023797,
        "meta_mean_motion_dot": 2.352e-05,
        "meta_mean_motion_ddot": 0,
        "tle_line1": "1 30717U 99025ASB 25351.14392470  .00002352  00000+0  11024-2 0  9990",
        "tle_line2": "2 30717  99.0175  61.9852 0048485 244.9903 114.6234 14.20566869965998"
      },
      "geometry": {
        "type": "Point",
        "coordinates": [
          111.89830536014458,
          -78.14207122149486
        ]
      }
    },
    {
      "type": "Feature",
      "properties": {
        "norad_id": 30718,
        "name": "FENGYUN 1C DEB",
        "group": "fengyun-1c-debris",
        "lat": 56.54052524982692,
        "lon": 58.662928787340256,
        "alt_km": 800.7359149473023,
        "timestamp": "2025-12-17T21:39:45.965353+00:00",
        "meta_object_name": "FENGYUN 1C DEB",
        "meta_object_id": "1999-025ASC",
        "meta_epoch": "2025-12-17T11:16:36.228864",
        "meta_mean_motion": 14.24383942,
        "meta_eccentricity": 0.00573881,
        "meta_inclination": 98.8909,
        "meta_ra_of_asc_node": 71.9264,
        "meta_arg_of_pericenter": 143.1712,
        "meta_mean_anomaly": 217.343,
        "meta_ephemeris_type": 0,
        "meta_classification_type": "U",
        "meta_norad_cat_id": 30718,
        "meta_element_set_no": 999,
        "meta_rev_at_epoch": 96841,
        "meta_bstar": 0.0012216481,
        "meta_mean_motion_dot": 2.83e-05,
        "meta_mean_motion_ddot": 0,
        "tle_line1": "1 30718U 99025ASC 25351.46986376  .00002830  00000+0  12216-2 0  9995",
        "tle_line2": "2 30718  98.8909  71.9264 0057388 143.1712 217.3430 14.24383942968411"
      },
      "geometry": {
        "type": "Point",
        "coordinates": [
          58.662928787340256,
          56.54052524982692
        ]
      }
    }
  ]
}